MEAN_MOTION;ECCENTRICITY;INCLINATION;RA_OF_ASC_NODE;ARG_OF_PERICENTER;MEAN_ANOMALY;BSTAR;MEAN_MOTION_DOT;MEAN_MOTION_DDOT;TYPE
2.00565399;0.0110864;53.1736;189.8454;43.1225;317.7263;0;-6.0E-8;0;Navigation
2.00565366;0.0110864;53.1736;189.8247;43.1223;317.7247;0;-1.1E-7;0;Navigation
2.00565332;0.0110858;53.1736;189.804;43.1213;317.7239;0;-1.5E-7;0;Navigation
2.00565302;0.0110849;53.1735;189.804;43.1106;317.7344;0;-1.5E-7;0;Navigation
2.00565271;0.0110849;53.1735;189.7833;43.1125;317.7313;0;-1.8E-7;0;Navigation
2.00565271;0.0110849;53.1735;189.7833;43.1125;317.7313;0;-1.8E-7;0;Navigation
2.00565182;0.0110858;53.1733;189.7212;43.1193;317.7241;0;-2.1E-7;0;Navigation
2.00565182;0.0110858;53.1733;189.7212;43.1193;317.7241;0;-2.1E-7;0;Navigation
2.00565182;0.0110858;53.1733;189.7212;43.1193;317.7241;0;-2.1E-7;0;Navigation
2.00565182;0.0110858;53.1733;189.7212;43.1193;317.7241;0;-2.1E-7;0;Navigation
2.00565017;0.0110898;53.173;189.5558;43.1645;317.6998;0;1.0E-8;0;Navigation
2.00564977;0.0110876;53.1729;189.5351;43.1539;317.7128;0;2.0E-8;0;Navigation
2.00564964;0.011089;53.1728;189.5145;43.1664;317.703;0;1.0E-8;0;Navigation
2.00564964;0.011089;53.1728;189.5145;43.1664;317.703;0;1.0E-8;0;Navigation
2.00564964;0.011089;53.1728;189.5145;43.1664;317.703;0;1.0E-8;0;Navigation
2.00564964;0.011089;53.1728;189.5145;43.1664;317.703;0;1.0E-8;0;Navigation
2.00564964;0.011089;53.1728;189.5145;43.1664;317.703;0;1.0E-8;0;Navigation
2.00564818;0.0110885;53.1724;189.3697;43.1817;317.6917;0;-2.8E-7;0;Navigation
2.00564803;0.0110949;53.1724;189.3283;43.2191;317.654;0;-3.9E-7;0;Navigation
2.00564764;0.0110951;53.1723;189.287;43.2277;317.6443;0;-4.6E-7;0;Navigation
2.00564764;0.0110951;53.1723;189.287;43.2277;317.6443;0;-4.6E-7;0;Navigation
2.00564764;0.0110951;53.1723;189.287;43.2277;317.6443;0;-4.6E-7;0;Navigation
2.00564764;0.0110951;53.1723;189.287;43.2277;317.6443;0;-4.6E-7;0;Navigation
2.00564574;0.0110945;53.172;189.1423;43.2337;317.6428;0;-3.2E-7;0;Navigation
2.00564574;0.0110945;53.172;189.1423;43.2337;317.6428;0;-3.2E-7;0;Navigation
2.00564574;0.0110945;53.172;189.1423;43.2337;317.6428;0;-3.2E-7;0;Navigation
2.00564574;0.0110945;53.172;189.1423;43.2337;317.6428;0;-3.2E-7;0;Navigation
2.00564574;0.0110945;53.172;189.1423;43.2337;317.6428;0;-3.2E-7;0;Navigation
2.00564574;0.0110945;53.172;189.1423;43.2337;317.6428;0;-3.2E-7;0;Navigation
2.00564337;0.0110971;53.1717;188.9976;43.2594;317.6392;0;1.1E-7;0;Navigation
2.00564337;0.0110971;53.1717;188.9976;43.2594;317.6392;0;1.1E-7;0;Navigation
2.00564247;0.0110985;53.1716;188.9356;43.2779;317.6308;0;2.3E-7;0;Navigation
2.00564247;0.0110985;53.1716;188.9356;43.2779;317.6308;0;2.3E-7;0;Navigation
2.00564128;0.0110989;53.1715;188.8735;43.2835;317.6317;0;2.6E-7;0;Navigation
2.00564052;0.0110984;53.1714;188.8529;43.2718;317.6443;0;2.5E-7;0;Navigation
2.00564052;0.0110984;53.1714;188.8529;43.2718;317.6443;0;2.5E-7;0;Navigation
2.00563923;0.0111001;53.1713;188.7908;43.2797;317.6364;0;1.7E-7;0;Navigation
2.00563877;0.0111007;53.1713;188.7494;43.2912;317.6225;0;8.0E-8;0;Navigation
2.00563877;0.0111007;53.1713;188.7494;43.2912;317.6225;0;8.0E-8;0;Navigation
2.00563847;0.0111013;53.1713;188.7288;43.2957;317.6164;0;4.0E-8;0;Navigation
2.00563799;0.0111012;53.1712;188.7081;43.2936;317.6166;0;-1.0E-8;0;Navigation
2.00563742;0.0111021;53.1712;188.6874;43.2894;317.6192;0;-4.0E-8;0;Navigation
2.00563742;0.0111021;53.1712;188.6874;43.2894;317.6192;0;-4.0E-8;0;Navigation
2.00563596;0.011104;53.1712;188.584;43.3114;317.5951;0;-9.0E-8;0;Navigation
2.00563596;0.011104;53.1712;188.584;43.3114;317.5951;0;-9.0E-8;0;Navigation
2.00563545;0.0111057;53.1711;188.5426;43.3233;317.5866;0;-3.0E-8;0;Navigation
2.00563489;0.0111075;53.1711;188.522;43.324;317.5884;0;0;0;Navigation
2.00563424;0.0111064;53.1711;188.46;43.3287;317.5922;0;1.3E-7;0;Navigation
2.00563378;0.0111068;53.1711;188.4185;43.3332;317.5935;0;1.8E-7;0;Navigation
2.00563347;0.0111068;53.1711;188.3978;43.3307;317.5984;0;1.9E-7;0;Navigation
2.00563325;0.0111075;53.171;188.3771;43.3357;317.5955;0;1.9E-7;0;Navigation
2.00563306;0.0111082;53.171;188.3564;43.3399;317.5928;0;1.8E-7;0;Navigation
2.00563284;0.0111094;53.171;188.3357;43.3478;317.5862;0;1.5E-7;0;Navigation
2.00563239;0.0111099;53.171;188.2943;43.3512;317.5834;0;7.0E-8;0;Navigation
2.00563201;0.0111119;53.1709;188.2529;43.3675;317.5664;0;-3.0E-8;0;Navigation
2.00563201;0.0111119;53.1709;188.2529;43.3675;317.5664;0;-3.0E-8;0;Navigation
2.00563127;0.0111112;53.1709;188.1909;43.3662;317.5644;0;-1.8E-7;0;Navigation
2.00563114;0.0111129;53.1708;188.1702;43.3793;317.5506;0;-2.1E-7;0;Navigation
2.00563114;0.0111129;53.1708;188.1702;43.3793;317.5506;0;-2.1E-7;0;Navigation
2.00563114;0.0111129;53.1708;188.1702;43.3793;317.5506;0;-2.1E-7;0;Navigation
2.00562975;0.0111156;53.1709;188.0461;43.4082;317.5212;0;-1.4E-7;0;Navigation
2.00562975;0.0111156;53.1709;188.0461;43.4082;317.5212;0;-1.4E-7;0;Navigation
2.00562889;0.011119;53.1709;187.9841;43.4285;317.506;0;4.0E-8;0;Navigation
2.00562889;0.011119;53.1709;187.9841;43.4285;317.506;0;4.0E-8;0;Navigation
2.00562816;0.0111196;53.1709;187.9428;43.4312;317.5081;0;1.8E-7;0;Navigation
2.00562765;0.0111166;53.1708;187.9221;43.4079;317.5335;0;2.5E-7;0;Navigation
2.00562685;0.011117;53.1708;187.8807;43.4082;317.5391;0;3.8E-7;0;Navigation
2.00562685;0.011117;53.1708;187.8807;43.4082;317.5391;0;3.8E-7;0;Navigation
2.00562515;0.0111182;53.1708;187.798;43.4129;317.5452;0;5.6E-7;0;Navigation
2.00562515;0.0111182;53.1708;187.798;43.4129;317.5452;0;5.6E-7;0;Navigation
2.00562392;0.0111175;53.1708;187.7567;43.395;317.5659;0;5.9E-7;0;Navigation
2.00562333;0.0111172;53.1709;187.7153;43.3982;317.5637;0;5.9E-7;0;Navigation
2.0056229;0.011118;53.1709;187.6946;43.4012;317.5605;0;5.7E-7;0;Navigation
2.0056229;0.011118;53.1709;187.6946;43.4012;317.5605;0;5.7E-7;0;Navigation
2.00562135;0.0111236;53.171;187.6325;43.4206;317.5373;0;4.7E-7;0;Navigation
2.00562135;0.0111236;53.171;187.6325;43.4206;317.5373;0;4.7E-7;0;Navigation
2.00562135;0.0111236;53.171;187.6325;43.4206;317.5373;0;4.7E-7;0;Navigation
2.00562135;0.0111236;53.171;187.6325;43.4206;317.5373;0;4.7E-7;0;Navigation
2.00561877;0.0111281;53.1711;187.4876;43.4374;317.5064;0;2.9E-7;0;Navigation
2.00561851;0.0111303;53.1711;187.4878;43.4412;317.5028;0;2.9E-7;0;Navigation
2.00561811;0.0111322;53.1712;187.4464;43.4652;317.4787;0;3.1E-7;0;Navigation
2.00561772;0.0111327;53.1712;187.4257;43.4651;317.4794;0;3.4E-7;0;Navigation
2.00561748;0.0111329;53.1712;187.4257;43.4595;317.485;0;3.4E-7;0;Navigation
2.00561712;0.011134;53.1713;187.3843;43.4726;317.4748;0;4.2E-7;0;Navigation
2.00561712;0.011134;53.1713;187.3843;43.4726;317.4748;0;4.2E-7;0;Navigation
2.00561637;0.0111363;53.1713;187.343;43.4827;317.4691;0;5.0E-7;0;Navigation
2.00561637;0.0111363;53.1713;187.343;43.4827;317.4691;0;5.0E-7;0;Navigation
2.00561637;0.0111363;53.1713;187.343;43.4827;317.4691;0;5.0E-7;0;Navigation
2.00561527;0.0111386;53.1714;187.2603;43.4957;317.4636;0;6.0E-7;0;Navigation
2.00561514;0.0111425;53.1715;187.2396;43.5299;317.4311;0;5.9E-7;0;Navigation
2.00561514;0.0111425;53.1715;187.2396;43.5299;317.4311;0;5.9E-7;0;Navigation
2.00561514;0.0111425;53.1715;187.2396;43.5299;317.4311;0;5.9E-7;0;Navigation
2.00561514;0.0111425;53.1715;187.2396;43.5299;317.4311;0;5.9E-7;0;Navigation
2.00561514;0.0111425;53.1715;187.2396;43.5299;317.4311;0;5.9E-7;0;Navigation
2.00561326;0.011143;53.1717;187.0742;43.5432;317.4091;0;2.5E-7;0;Navigation
2.00561308;0.0111449;53.1717;187.0741;43.5427;317.4098;0;2.5E-7;0;Navigation
2.00561271;0.0111461;53.1717;187.0329;43.5543;317.3943;0;1.8E-7;0;Navigation
2.0056125;0.0111466;53.1718;187.0122;43.5587;317.3881;0;1.6E-7;0;Navigation
2.00561228;0.0111472;53.1718;186.9915;43.5635;317.3819;0;1.5E-7;0;Navigation
2.00561228;0.0111472;53.1718;186.9915;43.5635;317.3819;0;1.5E-7;0;Navigation
2.00561159;0.0111491;53.1719;186.9294;43.575;317.368;0;2.1E-7;0;Navigation
2.00561159;0.0111491;53.1719;186.9294;43.575;317.368;0;2.1E-7;0;Navigation
2.00561082;0.0111524;53.172;186.888;43.5795;317.3641;0;3.1E-7;0;Navigation
2.00561039;0.0111533;53.1721;186.8466;43.5934;317.3523;0;4.4E-7;0;Navigation
2.00560991;0.011153;53.1721;186.826;43.5843;317.3626;0;5.2E-7;0;Navigation
2.00560951;0.0111549;53.1721;186.8054;43.5967;317.3523;0;5.9E-7;0;Navigation
2.00560917;0.0111561;53.1722;186.7847;43.6023;317.3486;0;6.5E-7;0;Navigation
2.00560875;0.0111568;53.1722;186.764;43.6013;317.3517;0;7.2E-7;0;Navigation
2.0056079;0.0111605;53.1723;186.7227;43.6118;317.3456;0;8.3E-7;0;Navigation
2.0056075;0.0111614;53.1723;186.702;43.6143;317.3449;0;8.8E-7;0;Navigation
2.00560721;0.0111629;53.1724;186.702;43.6136;317.3457;0;8.8E-7;0;Navigation
2.00560721;0.0111629;53.1724;186.702;43.6136;317.3457;0;8.8E-7;0;Navigation
2.00560577;0.0111678;53.1725;186.6193;43.6438;317.32;0;9.6E-7;0;Navigation
2.00560577;0.0111678;53.1725;186.6193;43.6438;317.32;0;9.6E-7;0;Navigation
2.00560577;0.0111678;53.1725;186.6193;43.6438;317.32;0;9.6E-7;0;Navigation
2.00560372;0.0111721;53.1726;186.5366;43.6634;317.2961;0;9.0E-7;0;Navigation
2.0056033;0.0111732;53.1727;186.5159;43.6683;317.2889;0;8.6E-7;0;Navigation
2.0056033;0.0111732;53.1727;186.5159;43.6683;317.2889;0;8.6E-7;0;Navigation
2.00560299;0.011174;53.1727;186.5159;43.6631;317.294;0;8.6E-7;0;Navigation
2.00560299;0.011174;53.1727;186.5159;43.6631;317.294;0;8.6E-7;0;Navigation
2.00560202;0.0111773;53.1729;186.4538;43.6858;317.2623;0;7.4E-7;0;Navigation
2.00560156;0.0111784;53.1729;186.4331;43.6844;317.2604;0;7.0E-7;0;Navigation
2.0056007;0.0111812;53.173;186.3918;43.6782;317.2606;0;6.5E-7;0;Navigation
2.0056007;0.0111812;53.173;186.3918;43.6782;317.2606;0;6.5E-7;0;Navigation
2.00559967;0.0111844;53.1731;186.3298;43.7112;317.2226;0;6.4E-7;0;Navigation
2.00559926;0.0111858;53.1732;186.3091;43.7207;317.2126;0;6.6E-7;0;Navigation
2.00559894;0.0111869;53.1733;186.2884;43.7295;317.2039;0;6.8E-7;0;Navigation
2.00559872;0.0111876;53.1733;186.2884;43.7319;317.2017;0;6.8E-7;0;Navigation
2.00559872;0.0111876;53.1733;186.2884;43.7319;317.2017;0;6.8E-7;0;Navigation
